UNKNOWN                 
1 82051U          23253.90848725  .00005213  00000+0  22124-2 0  9997
2 82051  98.7944 323.8523 0114378 145.1013 215.7732 14.22276309454752
UNKNOWN                 
1 82073U          23258.23998868  .00004332  00000+0  12766-2 0  9998
2 82073  97.7165  46.8082 0232895 251.6693 105.9033 14.29502441457634
UNKNOWN                 
1 82139U          23258.36420343  .00003295  00000+0  18633-2 0  9999
2 82139  99.0756 307.1047 0092737 188.4917 171.4687 14.08702239364473
UNKNOWN                 
1 82162U          23257.60099327  .00003651  00000+0  61616-2 0  9990
2 82162 100.4196 131.4275 0062397  41.0775 319.5028 13.45524789393681
UNKNOWN                 
1 82189U          23254.90105068  .00000367  00000+0  14038-3 0  9997
2 82189  74.0336 115.7209 0016284 149.8755 210.3336 14.34084953514412
UNKNOWN                 
1 82199U          23257.11735852  .00000618  00000+0  53788-3 0  9998
2 82199  82.9668 130.1079 0036104 205.4214 306.6885 13.84249738496096
UNKNOWN                 
1 82205U          23258.12158578  .00008861  00000+0  23398-2 0  9993
2 82205  63.0081  38.3489 0553340 209.6973 147.1578 13.85037306494116
UNKNOWN                 
1 82223U          23254.00005945  .00002629  00000+0  16029-2 0  9994
2 82223  99.3905  98.6061 0074678 109.7389 251.1851 14.05608141332802
UNKNOWN                 
1 82227U          23245.69613556  .00000134  00000+0  13042-2 0  9997
2 82227 101.9287 214.1207 0001189 136.9341  40.0849 12.42116228537867
UNKNOWN                 
1 82250U          23255.54651799  .00004100  00000+0  25308-2 0  9994
2 82250  98.9301 158.2508 0082654 344.7230 137.9800 14.04236131500846
UNKNOWN                 
1 82272U          23255.24296997  .00000390  00000+0  13463-2 0  9996
2 82272  67.5235 249.0834 0764085 272.0134  79.3622 12.32613081170532
UNKNOWN                 
1 82284U          23257.56565565  .00013711  00000+0  42253-2 0  9996
2 82284  99.5530 122.1777 0090311 285.8933  73.2312 14.39219059554001
UNKNOWN                 
1 82285U          23256.92262320  .00007014  00000+0  65561-2 0  9995
2 82285 102.0004 155.8739 0331785 264.0858  92.2372 13.60260409483744
UNKNOWN                 
1 82295U          23255.10718641  .00001715  00000+0  67847-3 0  9999
2 82295  66.6218 145.3352 0121557  82.5412 278.9476 14.27348828462151
UNKNOWN                 
1 82303U          23258.16689883  .00018092  00000+0  32605-1 0  9991
2 82303  81.9429 320.2913 0046428 139.5975 251.0016 13.40732646402922
UNKNOWN                 
1 82311U          23258.04381296  .00000900  00000+0  13607-2 0  9995
2 82311  99.4949 336.5446 0112314 210.7304 148.7223 13.52850460439413
UNKNOWN                 
1 82363U          23243.19849673  .00000697  00000+0  11960-2 0  9993
2 82363  66.9365 179.2060 0462048 336.9695  21.1205 13.14341581180538
