[{"OBJECT_NAME":"UNKNOWN","OBJECT_ID":"","EPOCH":"2023-09-10T21:48:13.298400","MEAN_MOTION":14.22276309,"ECCENTRICITY":0.0114378,"INCLINATION":98.7944,"RA_OF_ASC_NODE":323.8523,"ARG_OF_PERICENTER":145.1013,"MEAN_ANOMALY":215.7732,"EPHEMERIS_TYPE":0,"CLASSIFICATION_TYPE":"U","NORAD_CAT_ID":82051,"ELEMENT_SET_NO":999,"REV_AT_EPOCH":45475,"BSTAR":0.0022124,"MEAN_MOTION_DOT":5.213e-5,"MEAN_MOTION_DDOT":0},{"OBJECT_NAME":"UNKNOWN","OBJECT_ID":"","EPOCH":"2023-09-15T05:45:35.021952","MEAN_MOTION":14.29502441,"ECCENTRICITY":0.0232895,"INCLINATION":97.7165,"RA_OF_ASC_NODE":46.8082,"ARG_OF_PERICENTER":251.6693,"MEAN_ANOMALY":105.9033,"EPHEMERIS_TYPE":0,"CLASSIFICATION_TYPE":"U","NORAD_CAT_ID":82073,"ELEMENT_SET_NO":999,"REV_AT_EPOCH":45763,"BSTAR":0.0012766,"MEAN_MOTION_DOT":4.332e-5,"MEAN_MOTION_DDOT":0},{"OBJECT_NAME":"UNKNOWN","OBJECT_ID":"","EPOCH":"2023-09-15T08:44:27.176352","MEAN_MOTION":14.08702239,"ECCENTRICITY":0.0092737,"INCLINATION":99.0756,"RA_OF_ASC_NODE":307.1047,"ARG_OF_PERICENTER":188.4917,"MEAN_ANOMALY":171.4687,"EPHEMERIS_TYPE":0,"CLASSIFICATION_TYPE":"U","NORAD_CAT_ID":82139,"ELEMENT_SET_NO":999,"REV_AT_EPOCH":36447,"BSTAR":0.0018633,"MEAN_MOTION_DOT":3.295e-5,"MEAN_MOTION_DDOT":0},{"OBJECT_NAME":"UNKNOWN","OBJECT_ID":"","EPOCH":"2023-09-14T14:25:25.818528","MEAN_MOTION":13.45524789,"ECCENTRICITY":0.0062397,"INCLINATION":100.4196,"RA_OF_ASC_NODE":131.4275,"ARG_OF_PERICENTER":41.0775,"MEAN_ANOMALY":319.5028,"EPHEMERIS_TYPE":0,"CLASSIFICATION_TYPE":"U","NORAD_CAT_ID":82162,"ELEMENT_SET_NO":999,"REV_AT_EPOCH":39368,"BSTAR":0.0061616,"MEAN_MOTION_DOT":3.651e-5,"MEAN_MOTION_DDOT":0},{"OBJECT_NAME":"UNKNOWN","OBJECT_ID":"","EPOCH":"2023-09-11T21:37:30.778752","MEAN_MOTION":14.34084953,"ECCENTRICITY":0.0016284,"INCLINATION":74.0336,"RA_OF_ASC_NODE":115.7209,"ARG_OF_PERICENTER":149.8755,"MEAN_ANOMALY":210.3336,"EPHEMERIS_TYPE":0,"CLASSIFICATION_TYPE":"U","NORAD_CAT_ID":82189,"ELEMENT_SET_NO":999,"REV_AT_EPOCH":51441,"BSTAR":0.00014038,"MEAN_MOTION_DOT":3.67e-6,"MEAN_MOTION_DDOT":0},{"OBJECT_NAME":"UNKNOWN","OBJECT_ID":"","EPOCH":"2023-09-14T02:48:59.776128","MEAN_MOTION":13.84249738,"ECCENTRICITY":0.0036104,"INCLINATION":82.9668,"RA_OF_ASC_NODE":130.1079,"ARG_OF_PERICENTER":205.4214,"MEAN_ANOMALY":306.6885,"EPHEMERIS_TYPE":0,"CLASSIFICATION_TYPE":"U","NORAD_CAT_ID":82199,"ELEMENT_SET_NO":999,"REV_AT_EPOCH":49609,"BSTAR":0.00053788,"MEAN_MOTION_DOT":6.18e-6,"MEAN_MOTION_DDOT":0},{"OBJECT_NAME":"UNKNOWN","OBJECT_ID":"","EPOCH":"2023-09-15T02:55:05.011392","MEAN_MOTION":13.85037306,"ECCENTRICITY":0.055334,"INCLINATION":63.0081,"RA_OF_ASC_NODE":38.3489,"ARG_OF_PERICENTER":209.6973,"MEAN_ANOMALY":147.1578,"EPHEMERIS_TYPE":0,"CLASSIFICATION_TYPE":"U","NORAD_CAT_ID":82205,"ELEMENT_SET_NO":999,"REV_AT_EPOCH":49411,"BSTAR":0.0023398,"MEAN_MOTION_DOT":8.861e-5,"MEAN_MOTION_DDOT":0},{"OBJECT_NAME":"UNKNOWN","OBJECT_ID":"","EPOCH":"2023-09-11T00:00:05.136480","MEAN_MOTION":14.05608141,"ECCENTRICITY":0.0074678,"INCLINATION":99.3905,"RA_OF_ASC_NODE":98.6061,"ARG_OF_PERICENTER":109.7389,"MEAN_ANOMALY":251.1851,"EPHEMERIS_TYPE":0,"CLASSIFICATION_TYPE":"U","NORAD_CAT_ID":82223,"ELEMENT_SET_NO":999,"REV_AT_EPOCH":33280,"BSTAR":0.0016029,"MEAN_MOTION_DOT":2.629e-5,"MEAN_MOTION_DDOT":0},{"OBJECT_NAME":"UNKNOWN","OBJECT_ID":"","EPOCH":"2023-09-02T16:42:26.112384","MEAN_MOTION":12.42116228,"ECCENTRICITY":0.0001189,"INCLINATION":101.9287,"RA_OF_ASC_NODE":214.1207,"ARG_OF_PERICENTER":136.9341,"MEAN_ANOMALY":40.0849,"EPHEMERIS_TYPE":0,"CLASSIFICATION_TYPE":"U","NORAD_CAT_ID":82227,"ELEMENT_SET_NO":999,"REV_AT_EPOCH":53786,"BSTAR":0.0013042,"MEAN_MOTION_DOT":1.34e-6,"MEAN_MOTION_DDOT":0},{"OBJECT_NAME":"UNKNOWN","OBJECT_ID":"","EPOCH":"2023-09-12T13:06:59.154336","MEAN_MOTION":14.04236131,"ECCENTRICITY":0.0082654,"INCLINATION":98.9301,"RA_OF_ASC_NODE":158.2508,"ARG_OF_PERICENTER":344.723,"MEAN_ANOMALY":137.98,"EPHEMERIS_TYPE":0,"CLASSIFICATION_TYPE":"U","NORAD_CAT_ID":82250,"ELEMENT_SET_NO":999,"REV_AT_EPOCH":50084,"BSTAR":0.0025308,"MEAN_MOTION_DOT":4.1e-5,"MEAN_MOTION_DDOT":0},{"OBJECT_NAME":"UNKNOWN","OBJECT_ID":"","EPOCH":"2023-09-12T05:49:52.605408","MEAN_MOTION":12.32613081,"ECCENTRICITY":0.0764085,"INCLINATION":67.5235,"RA_OF_ASC_NODE":249.0834,"ARG_OF_PERICENTER":272.0134,"MEAN_ANOMALY":79.3622,"EPHEMERIS_TYPE":0,"CLASSIFICATION_TYPE":"U","NORAD_CAT_ID":82272,"ELEMENT_SET_NO":999,"REV_AT_EPOCH":17053,"BSTAR":0.0013463,"MEAN_MOTION_DOT":3.9e-6,"MEAN_MOTION_DDOT":0},{"OBJECT_NAME":"UNKNOWN","OBJECT_ID":"","EPOCH":"2023-09-14T13:34:32.648160","MEAN_MOTION":14.39219059,"ECCENTRICITY":0.0090311,"INCLINATION":99.553,"RA_OF_ASC_NODE":122.1777,"ARG_OF_PERICENTER":285.8933,"MEAN_ANOMALY":73.2312,"EPHEMERIS_TYPE":0,"CLASSIFICATION_TYPE":"U","NORAD_CAT_ID":82284,"ELEMENT_SET_NO":999,"REV_AT_EPOCH":55400,"BSTAR":0.0042253,"MEAN_MOTION_DOT":0.00013711,"MEAN_MOTION_DDOT":0},{"OBJECT_NAME":"UNKNOWN","OBJECT_ID":"","EPOCH":"2023-09-13T22:08:34.644480","MEAN_MOTION":13.60260409,"ECCENTRICITY":0.0331785,"INCLINATION":102.0004,"RA_OF_ASC_NODE":155.8739,"ARG_OF_PERICENTER":264.0858,"MEAN_ANOMALY":92.2372,"EPHEMERIS_TYPE":0,"CLASSIFICATION_TYPE":"U","NORAD_CAT_ID":82285,"ELEMENT_SET_NO":999,"REV_AT_EPOCH":48374,"BSTAR":0.0065561,"MEAN_MOTION_DOT":7.014e-5,"MEAN_MOTION_DDOT":0},{"OBJECT_NAME":"UNKNOWN","OBJECT_ID":"","EPOCH":"2023-09-12T02:34:20.905824","MEAN_MOTION":14.27348828,"ECCENTRICITY":0.0121557,"INCLINATION":66.6218,"RA_OF_ASC_NODE":145.3352,"ARG_OF_PERICENTER":82.5412,"MEAN_ANOMALY":278.9476,"EPHEMERIS_TYPE":0,"CLASSIFICATION_TYPE":"U","NORAD_CAT_ID":82295,"ELEMENT_SET_NO":999,"REV_AT_EPOCH":46215,"BSTAR":0.00067847,"MEAN_MOTION_DOT":1.715e-5,"MEAN_MOTION_DDOT":0},{"OBJECT_NAME":"UNKNOWN","OBJECT_ID":"","EPOCH":"2023-09-15T04:00:20.058912","MEAN_MOTION":13.40732646,"ECCENTRICITY":0.0046428,"INCLINATION":81.9429,"RA_OF_ASC_NODE":320.2913,"ARG_OF_PERICENTER":139.5975,"MEAN_ANOMALY":251.0016,"EPHEMERIS_TYPE":0,"CLASSIFICATION_TYPE":"U","NORAD_CAT_ID":82303,"ELEMENT_SET_NO":999,"REV_AT_EPOCH":40292,"BSTAR":0.032605,"MEAN_MOTION_DOT":0.00018092,"MEAN_MOTION_DDOT":0},{"OBJECT_NAME":"UNKNOWN","OBJECT_ID":"","EPOCH":"2023-09-15T01:03:05.439744","MEAN_MOTION":13.5285046,"ECCENTRICITY":0.0112314,"INCLINATION":99.4949,"RA_OF_ASC_NODE":336.5446,"ARG_OF_PERICENTER":210.7304,"MEAN_ANOMALY":148.7223,"EPHEMERIS_TYPE":0,"CLASSIFICATION_TYPE":"U","NORAD_CAT_ID":82311,"ELEMENT_SET_NO":999,"REV_AT_EPOCH":43941,"BSTAR":0.0013607,"MEAN_MOTION_DOT":9.0e-6,"MEAN_MOTION_DDOT":0},{"OBJECT_NAME":"UNKNOWN","OBJECT_ID":"","EPOCH":"2023-08-31T04:45:50.117472","MEAN_MOTION":13.14341581,"ECCENTRICITY":0.0462048,"INCLINATION":66.9365,"RA_OF_ASC_NODE":179.206,"ARG_OF_PERICENTER":336.9695,"MEAN_ANOMALY":21.1205,"EPHEMERIS_TYPE":0,"CLASSIFICATION_TYPE":"U","NORAD_CAT_ID":82363,"ELEMENT_SET_NO":999,"REV_AT_EPOCH":18053,"BSTAR":0.001196,"MEAN_MOTION_DOT":6.97e-6,"MEAN_MOTION_DDOT":0}]
